{
  "type": "FeatureCollection",
  "features": [
    {
      "type": "Feature",
      "properties": {
        "norad_id": 36828,
        "name": "BEIDOU-2 IGSO-1 (C06)",
        "group": "beidou",
        "lat": -51.46960078302435,
        "lon": 99.75799863441883,
        "alt_km": 35714.76741696789,
        "timestamp": "2025-12-20T16:47:36.551698+00:00",
        "meta_object_name": "BEIDOU-2 IGSO-1 (C06)",
        "meta_object_id": "2010-036A",
        "meta_epoch": "2025-12-14T21:38:21.623424",
        "meta_mean_motion": 1.00275796,
        "meta_eccentricity": 0.00512569,
        "meta_inclination": 54.2866,
        "meta_ra_of_asc_node": 164.6279,
        "meta_arg_of_pericenter": 215.8888,
        "meta_mean_anomaly": 135.7931,
        "meta_ephemeris_type": 0,
        "meta_classification_type": "U",
        "meta_norad_cat_id": 36828,
        "meta_element_set_no": 999,
        "meta_rev_at_epoch": 5624,
        "meta_bstar": 0,
        "meta_mean_motion_dot": -2.4e-07,
        "meta_mean_motion_ddot": 0,
        "tle_line1": "1 36828U 10036A   25348.90163916 -.00000024  00000+0  00000+0 0  9999",
        "tle_line2": "2 36828  54.2866 164.6279 0051256 215.8888 135.7931  1.00275796 56247"
      },
      "geometry": {
        "type": "Point",
        "coordinates": [
          99.75799863441883,
          -51.46960078302435
        ]
      }
    },
    {
      "type": "Feature",
      "properties": {
        "norad_id": 37210,
        "name": "BEIDOU-2 G4 (C04)",
        "group": "beidou",
        "lat": 3.0555538021329385,
        "lon": 141.38115447393585,
        "alt_km": 35808.6143845859,
        "timestamp": "2025-12-20T16:47:36.551722+00:00",
        "meta_object_name": "BEIDOU-2 G4 (C04)",
        "meta_object_id": "2010-057A",
        "meta_epoch": "2025-12-20T13:35:05.702208",
        "meta_mean_motion": 1.00272021,
        "meta_eccentricity": 0.0010429,
        "meta_inclination": 3.2031,
        "meta_ra_of_asc_node": 69.9094,
        "meta_arg_of_pericenter": 192.8196,
        "meta_mean_anomaly": 190.5265,
        "meta_ephemeris_type": 0,
        "meta_classification_type": "U",
        "meta_norad_cat_id": 37210,
        "meta_element_set_no": 999,
        "meta_rev_at_epoch": 5550,
        "meta_bstar": 0,
        "meta_mean_motion_dot": -9e-07,
        "meta_mean_motion_ddot": 0,
        "tle_line1": "1 37210U 10057A   25354.56603822 -.00000090  00000+0  00000+0 0  9995",
        "tle_line2": "2 37210   3.2031  69.9094 0010429 192.8196 190.5265  1.00272021 55501"
      },
      "geometry": {
        "type": "Point",
        "coordinates": [
          141.38115447393585,
          3.0555538021329385
        ]
      }
    },
    {
      "type": "Feature",
      "properties": {
        "norad_id": 37256,
        "name": "BEIDOU-2 IGSO-2 (C07)",
        "group": "beidou",
        "lat": 3.7695153589414425,
        "lon": 90.62753377643266,
        "alt_km": 35629.06639582621,
        "timestamp": "2025-12-20T16:47:36.551736+00:00",
        "meta_object_name": "BEIDOU-2 IGSO-2 (C07)",
        "meta_object_id": "2010-068A",
        "meta_epoch": "2025-12-20T13:52:30.782784",
        "meta_mean_motion": 1.00284035,
        "meta_eccentricity": 0.004842,
        "meta_inclination": 47.8716,
        "meta_ra_of_asc_node": 274.0527,
        "meta_arg_of_pericenter": 216.3627,
        "meta_mean_anomaly": 275.0459,
        "meta_ephemeris_type": 0,
        "meta_classification_type": "U",
        "meta_norad_cat_id": 37256,
        "meta_element_set_no": 999,
        "meta_rev_at_epoch": 5500,
        "meta_bstar": 0,
        "meta_mean_motion_dot": -1.89e-06,
        "meta_mean_motion_ddot": 0,
        "tle_line1": "1 37256U 10068A   25354.57813406 -.00000189  00000+0  00000+0 0  9998",
        "tle_line2": "2 37256  47.8716 274.0527 0048420 216.3627 275.0459  1.00284035 55005"
      },
      "geometry": {
        "type": "Point",
        "coordinates": [
          90.62753377643266,
          3.7695153589414425
        ]
      }
    },
    {
      "type": "Feature",
      "properties": {
        "norad_id": 37384,
        "name": "BEIDOU-2 IGSO-3 (C08)",
        "group": "beidou",
        "lat": 39.977450335029474,
        "lon": 68.16403052253058,
        "alt_km": 35898.839230861675,
        "timestamp": "2025-12-20T16:47:36.551749+00:00",
        "meta_object_name": "BEIDOU-2 IGSO-3 (C08)",
        "meta_object_id": "2011-013A",
        "meta_epoch": "2025-12-20T13:37:43.601664",
        "meta_mean_motion": 1.00268976,
        "meta_eccentricity": 0.0035383,
        "meta_inclination": 62.1535,
        "meta_ra_of_asc_node": 41.8418,
        "meta_arg_of_pericenter": 187.625,
        "meta_mean_anomaly": 171.7356,
        "meta_ephemeris_type": 0,
        "meta_classification_type": "U",
        "meta_norad_cat_id": 37384,
        "meta_element_set_no": 999,
        "meta_rev_at_epoch": 5386,
        "meta_bstar": 0,
        "meta_mean_motion_dot": -1.64e-06,
        "meta_mean_motion_ddot": 0,
        "tle_line1": "1 37384U 11013A   25354.56786576 -.00000164  00000+0  00000+0 0  9990",
        "tle_line2": "2 37384  62.1535  41.8418 0035383 187.6250 171.7356  1.00268976 53867"
      },
      "geometry": {
        "type": "Point",
        "coordinates": [
          68.16403052253058,
          39.977450335029474
        ]
      }
    },
    {
      "type": "Feature",
      "properties": {
        "norad_id": 37763,
        "name": "BEIDOU-2 IGSO-4 (C09)",
        "group": "beidou",
        "lat": -54.520389928059835,
        "lon": 77.08454801082087,
        "alt_km": 35301.214799374146,
        "timestamp": "2025-12-20T16:47:36.551761+00:00",
        "meta_object_name": "BEIDOU-2 IGSO-4 (C09)",
        "meta_object_id": "2011-038A",
        "meta_epoch": "2025-12-17T23:29:21.564384",
        "meta_mean_motion": 1.00281312,
        "meta_eccentricity": 0.01493143,
        "meta_inclination": 54.5836,
        "meta_ra_of_asc_node": 167.2999,
        "meta_arg_of_pericenter": 230.2426,
        "meta_mean_anomaly": 136.1954,
        "meta_ephemeris_type": 0,
        "meta_classification_type": "U",
        "meta_norad_cat_id": 37763,
        "meta_element_set_no": 999,
        "meta_rev_at_epoch": 5283,
        "meta_bstar": 0,
        "meta_mean_motion_dot": 6.5e-07,
        "meta_mean_motion_ddot": 0,
        "tle_line1": "1 37763U 11038A   25351.97872181  .00000065  00000+0  00000+0 0  9997",
        "tle_line2": "2 37763  54.5836 167.2999 0149314 230.2426 136.1954  1.00281312 52838"
      },
      "geometry": {
        "type": "Point",
        "coordinates": [
          77.08454801082087,
          -54.520389928059835
        ]
      }
    },
    {
      "type": "Feature",
      "properties": {
        "norad_id": 37948,
        "name": "BEIDOU-2 IGSO-5 (C10)",
        "group": "beidou",
        "lat": 14.75670749155083,
        "lon": 80.05441939250053,
        "alt_km": 35560.14853921189,
        "timestamp": "2025-12-20T16:47:36.551773+00:00",
        "meta_object_name": "BEIDOU-2 IGSO-5 (C10)",
        "meta_object_id": "2011-073A",
        "meta_epoch": "2025-12-19T18:17:17.237184",
        "meta_mean_motion": 1.00289893,
        "meta_eccentricity": 0.01098798,
        "meta_inclination": 48.0071,
        "meta_ra_of_asc_node": 273.7726,
        "meta_arg_of_pericenter": 222.325,
        "meta_mean_anomaly": 320.2143,
        "meta_ephemeris_type": 0,
        "meta_classification_type": "U",
        "meta_norad_cat_id": 37948,
        "meta_element_set_no": 999,
        "meta_rev_at_epoch": 5133,
        "meta_bstar": 0,
        "meta_mean_motion_dot": -1.59e-06,
        "meta_mean_motion_ddot": 0,
        "tle_line1": "1 37948U 11073A   25353.76200506 -.00000159  00000+0  00000+0 0  9991",
        "tle_line2": "2 37948  48.0071 273.7726 0109879 222.3250 320.2143  1.00289893 51334"
      },
      "geometry": {
        "type": "Point",
        "coordinates": [
          80.05441939250053,
          14.75670749155083
        ]
      }
    },
    {
      "type": "Feature",
      "properties": {
        "norad_id": 38091,
        "name": "BEIDOU-2 G5 (C05)",
        "group": "beidou",
        "lat": -1.5636765765763856,
        "lon": 40.38054181192958,
        "alt_km": 35795.196542215825,
        "timestamp": "2025-12-20T16:47:36.551785+00:00",
        "meta_object_name": "BEIDOU-2 G5 (C05)",
        "meta_object_id": "2012-008A",
        "meta_epoch": "2025-12-19T16:03:31.750272",
        "meta_mean_motion": 1.00268606,
        "meta_eccentricity": 0.0012969,
        "meta_inclination": 3.1258,
        "meta_ra_of_asc_node": 70.6861,
        "meta_arg_of_pericenter": 231.3522,
        "meta_mean_anomaly": 86.1393,
        "meta_ephemeris_type": 0,
        "meta_classification_type": "U",
        "meta_norad_cat_id": 38091,
        "meta_element_set_no": 999,
        "meta_rev_at_epoch": 5056,
        "meta_bstar": 0,
        "meta_mean_motion_dot": 7.9e-07,
        "meta_mean_motion_ddot": 0,
        "tle_line1": "1 38091U 12008A   25353.66911748  .00000079  00000+0  00000+0 0  9996",
        "tle_line2": "2 38091   3.1258  70.6861 0012969 231.3522  86.1393  1.00268606 50560"
      },
      "geometry": {
        "type": "Point",
        "coordinates": [
          40.38054181192958,
          -1.5636765765763856
        ]
      }
    }
  ]
}